{
  "norad_id": 53797,
  "name": "STARLINK-4723",
  "history": [
    {
      "epoch": "2026-03-28T13:50:48.496416Z",
      "apogee_km": 540.586131705636,
      "perigee_km": 538.9037028233579,
      "latitude_deg": -3.022835995682357e-05,
      "longitude_deg": 155.20000526781115,
      "height_km": 540.6101364117256,
      "semi_major_axis_km": 6917.881917264497,
      "eccentricity": 0.0001216,
      "inclination_deg": 53.2175,
      "raan_deg": 188.8975,
      "arg_perigee_deg": 87.9084,
      "mean_anomaly_deg": 272.2047,
      "mean_motion_rev_day": 15.088395
    },
    {
      "epoch": "2026-03-29T05:44:40.392096Z",
      "apogee_km": 540.6570892623749,
      "perigee_km": 538.855669826341,
      "latitude_deg": 5.113908386005568e-05,
      "longitude_deg": -86.89156362131574,
      "height_km": 540.7561073859308,
      "semi_major_axis_km": 6917.893379544357,
      "eccentricity": 0.0001302,
      "inclination_deg": 53.2179,
      "raan_deg": 185.925,
      "arg_perigee_deg": 96.6232,
      "mean_anomaly_deg": 263.4909,
      "mean_motion_rev_day": 15.0883575
    },
    {
      "epoch": "2026-03-29T23:13:54.844032Z",
      "apogee_km": 540.7696181831461,
      "perigee_km": 538.7224782315207,
      "latitude_deg": 5.7847992259807276e-05,
      "longitude_deg": 6.807045484397515,
      "height_km": 540.57283417129,
      "semi_major_axis_km": 6917.883048207333,
      "eccentricity": 0.00014796,
      "inclination_deg": 53.2176,
      "raan_deg": 182.652,
      "arg_perigee_deg": 86.1475,
      "mean_anomaly_deg": 273.9687,
      "mean_motion_rev_day": 15.0883913
    }
  ]
}